PROBA-1                 
1 26958U 01049B   14300.46578546  .00003454  00000-0  31872-3 0  6679
2 26958  97.4572 293.6775 0075116 320.4938 202.0497 14.93134122707585
BIRD 2                  
1 26959U 01049C   14300.25710307  .00011415  00000-0  46013-3 0  4431
2 26959  97.7925 185.9639 0012339 169.2874 339.3663 15.24941808718852
CUTE-1 (CO-55)          
1 27844U 03031E   14300.03555390  .00000526  00000-0  25991-3 0   566
2 27844  98.6989 306.9150 0008780 251.3096 174.7461 14.21594164587310
CUBESAT XI-IV (CO-57)   
1 27848U 03031J   14300.51117687  .00000443  00000-0  22359-3 0    08
2 27848  98.7084 307.1672 0008642 257.3504 265.5896 14.21271148587292
GENESIS 1               
1 29252U 06029A   14300.13706253  .00006995  00000-0  40999-3 0  3674
2 29252  64.5081 186.2773 0046262 298.5087 174.4705 15.11663746455775
FALCONSAT-3             
1 30776U 07006E   14300.44992413  .00016563  00000-0  78876-3 0  9901
2 30776  35.4294  13.8578 0001324  41.1729  28.2511 15.18347845420830
GENESIS 2               
1 31789U 07028A   14300.10597898  .00007755  00000-0  47044-3 0   784
2 31789  64.5083 220.9913 0010666 333.1335  26.9230 15.11149824402905
APRIZESAT 4             
1 35684U 09041D   14299.85810479  .00001803  00000-0  25270-3 0  6232
2 35684  98.0605 221.0789 0047094 325.9071  75.1923 14.78035033282627
APRIZESAT 3             
1 35686U 09041F   14300.47165831  .00003245  00000-0  36425-3 0  6629
2 35686  98.1640 250.0759 0073807 266.1650 211.5573 14.85563856284017
PROBA-2                 
1 36037U 09059B   14300.15063816  .00000435  00000-0  11709-3 0  5551
2 36037  98.2803 131.2616 0014282  66.5888  48.5103 14.52670846264151
APRIZESAT 5             
1 37792U 11044E   14300.28557858  .00002390  00000-0  36225-3 0  4376
2 37792  98.2342  46.1545 0058783 241.5210 171.5143 14.73986489171795
APRIZESAT 6             
1 37793U 11044F   14300.26541572  .00001660  00000-0  27330-3 0  4917
2 37793  98.2165  40.0303 0046925 253.9294 158.9391 14.71220369171473
TET-1                   
1 38710U 12039D   14299.33437158  .00018006  00000-0  61678-3 0   484
2 38710  97.4731 216.6143 0004478  84.2443 275.9308 15.30259745125804
STSAT-2C                
1 39068U 13003A   14300.29316794  .00058331 -15509-8  10197-2 0  6280
2 39068  80.2558 209.0538 0658226 186.0403 173.2566 14.39869095 89858
CUSAT 1                 
1 39266U 13055B   14299.38710927  .00018751  00000-0  59717-3 0  3620
2 39266  80.9948 282.6801 0747550 137.5649 228.5889 14.08555354 54939
STPSAT-3                
1 39380U 13064A   14299.39735197  .00011831  00000-0  47702-3 0  2941
2 39380  40.5135  65.7105 0000720 246.0708 114.0026 15.24593191 51890
APRIZESAT 7             
1 39416U 13066A   14300.09757591  .00001897  00000-0  23839-3 0  3166
2 39416  97.7658   8.5391 0042717 172.2274 187.9611 14.82626688 50312
APRIZESAT 8             
1 39425U 13066K   14300.14274820  .00001597  00000-0  21277-3 0  3140
2 39425  97.7634   7.1804 0053524 172.7432 187.4568 14.80026047 50259
BUGSAT-1 (TITA)         
1 40014U 14033E   14300.45062325  .00004089  00000-0  40597-3 0  4124
2 40014  97.9785 196.7540 0032338 277.6160  82.1390 14.91932126 19322
SAUDISAT 4              
1 40016U 14033G   14300.27227473  .00000998  00000-0  15525-3 0  3355
2 40016  97.9657 192.8528 0049419 147.4187 213.0081 14.74395435 19088
TABLETSAT-AURORA        
1 40017U 14033H   14300.30635694  .00004816  00000-0  50587-3 0  4135
2 40017  97.9784 196.1254 0023798 270.6016  89.2477 14.89749345 19277
APRIZESAT 9             
1 40018U 14033J   14300.52905742  .00000886  00000-0  15309-3 0  3971
2 40018  97.9596 191.9875 0072751 144.9438 215.6592 14.69150677 18954
APRIZESAT 10            
1 40019U 14033K   14300.50876109  .00000734  00000-0  13473-3 0  3976
2 40019  97.9582 191.3645 0085704 145.3874 215.2946 14.66283752 18968
AISAT                   
1 40054U 14034B   14300.28401538  .00004728  00000-0  73292-3 0  3300
2 40054  98.2421   9.3404 0012894 248.0173 111.9712 14.73599953 17533
CANX-4                  
1 40055U 14034C   14300.20106028  .00001191  00000-0  19107-3 0  3125
2 40055  98.2436   9.3454 0013018 256.8907 103.0861 14.73533966 17524
CANX-5                  
1 40056U 14034D   14297.82439208  .00001068  00000-0  17227-3 0  2974
2 40056  98.2439   6.9291 0013110 263.4443  96.5354 14.73526052 17174
TIANTUO 2               
1 40144U 14053B   14300.48199124  .00007370  00000-0  27631-3 0  1870
2 40144  97.4091  13.7004 0015470  99.4943  27.1538 15.27430841  7520
